{"type": "FeatureCollection", "features": [{"type": "Feature", "geometry": {"type": "Point", "coordinates": [-3.5722431500000003, 37.164386]}, "properties": {"name": "Vithas Granada", "kind": "hospital", "categoria": "sanidad", "osm_id": "way/532932977"}}, {"type": "Feature", "geometry": {"type": "Point", "coordinates": [-3.6228425, 37.1946846]}, "properties": {"name": "Farmacia Santamaría", "kind": "pharmacy", "categoria": "sanidad", "osm_id": "node/88144037"}}, {"type": "Feature", "geometry": {"type": "Point", "coordinates": [-3.6122595, 37.187303]}, "properties": {"name": "Centro de Salud La Caleta", "kind": "clinic", "categoria": "sanidad", "osm_id": "way/120426894"}}, {"type": "Feature", "geometry": {"type": "Point", "coordinates": [-3.608053, 37.1641966]}, "properties": {"name": "Hospital HLA Inmaculada", "kind": "hospital", "categoria": "sanidad", "osm_id": "way/120731864"}}, {"type": "Feature", "geometry": {"type": "Point", "coordinates": [-3.6000639, 37.1609506]}, "properties": {"name": "Centro de Salud Zaidín Centro-Este", "kind": "clinic", "categoria": "sanidad", "osm_id": "way/121794647"}}, {"type": "Feature", "geometry": {"type": "Point", "coordinates": [-3.6053995, 37.1464506]}, "properties": {"name": "Hospital Universitario Clínico San Cecilio", "kind": "hospital", "categoria": "sanidad", "osm_id": "way/121820687"}}, {"type": "Feature", "geometry": {"type": "Point", "coordinates": [-3.5989942, 37.1537283]}, "properties": {"name": "Centro de Salud Zaidín Sur", "kind": "clinic", "categoria": "sanidad", "osm_id": "way/123580975"}}, {"type": "Feature", "geometry": {"type": "Point", "coordinates": [-3.6040133, 37.1787209]}, "properties": {"name": "Centro de Salud Gran Capitán", "kind": "clinic", "categoria": "sanidad", "osm_id": "way/124059430"}}, {"type": "Feature", "geometry": {"type": "Point", "coordinates": [-3.6096598, 37.1881745]}, "properties": {"name": "Hospital General del Hospital Universitario Virgen de las Nieves", "kind": "hospital", "categoria": "sanidad", "osm_id": "way/124082299"}}, {"type": "Feature", "geometry": {"type": "Point", "coordinates": [-3.6072293, 37.1928961]}, "properties": {"name": "Hospital Universitario Virgen de las Nieves", "kind": "hospital", "categoria": "sanidad", "osm_id": "way/124082792"}}, {"type": "Feature", "geometry": {"type": "Point", "coordinates": [-3.6090717, 37.1892511]}, "properties": {"name": "Centro de Consultas Externas", "kind": "hospital", "categoria": "sanidad", "osm_id": "way/210585690"}}, {"type": "Feature", "geometry": {"type": "Point", "coordinates": [-3.6074065, 37.1930103]}, "properties": {"name": "Hospital de Neurotraumatología y Rehabilitación", "kind": "hospital", "categoria": "sanidad", "osm_id": "way/210585693"}}, {"type": "Feature", "geometry": {"type": "Point", "coordinates": [-3.6033123, 37.1804467]}, "properties": {"name": "Hospital de San Juan de Dios", "kind": "hospital", "categoria": "sanidad", "osm_id": "way/218338738"}}, {"type": "Feature", "geometry": {"type": "Point", "coordinates": [-3.6031039, 37.1809908]}, "properties": {"name": "Hospital de San Rafael", "kind": "hospital", "categoria": "sanidad", "osm_id": "way/218338739"}}, {"type": "Feature", "geometry": {"type": "Point", "coordinates": [-3.5919396, 37.1868624]}, "properties": {"name": "Farmacia Calzas", "kind": "pharmacy", "categoria": "sanidad", "osm_id": "node/267489671"}}, {"type": "Feature", "geometry": {"type": "Point", "coordinates": [-3.623012, 37.1972806]}, "properties": {"name": "Farmacia Fuentes Romero", "kind": "pharmacy", "categoria": "sanidad", "osm_id": "node/311670605"}}, {"type": "Feature", "geometry": {"type": "Point", "coordinates": [-3.5727364, 37.1646963]}, "properties": {"name": "Vithas Granada", "kind": "hospital", "categoria": "sanidad", "osm_id": "way/532932977"}}, {"type": "Feature", "geometry": {"type": "Point", "coordinates": [-3.6039067, 37.1901436]}, "properties": {"name": "Farmacia-Ortopedia Jiménez Millán", "kind": "pharmacy", "categoria": "sanidad", "osm_id": "node/544505524"}}, {"type": "Feature", "geometry": {"type": "Point", "coordinates": [-3.6019014, 37.1970116]}, "properties": {"name": "Farmacia Gálvez Lorente", "kind": "pharmacy", "categoria": "sanidad", "osm_id": "node/544605092"}}, {"type": "Feature", "geometry": {"type": "Point", "coordinates": [-3.6016222, 37.1994751]}, "properties": {"name": "Farmacia Antonio Figueredo Cabrera", "kind": "pharmacy", "categoria": "sanidad", "osm_id": "node/544605476"}}, {"type": "Feature", "geometry": {"type": "Point", "coordinates": [-3.6049144, 37.1679671]}, "properties": {"name": "Centro de Salud Las Flores", "kind": "clinic", "categoria": "sanidad", "osm_id": "way/585205486"}}, {"type": "Feature", "geometry": {"type": "Point", "coordinates": [-3.6114625, 37.1950115]}, "properties": {"name": "Farmacia Araceli Granada", "kind": "pharmacy", "categoria": "sanidad", "osm_id": "node/670733205"}}, {"type": "Feature", "geometry": {"type": "Point", "coordinates": [-3.6090421, 37.208174]}, "properties": {"name": "Centro de Salud Almanjáyar", "kind": "clinic", "categoria": "sanidad", "osm_id": "way/804919089"}}, {"type": "Feature", "geometry": {"type": "Point", "coordinates": [-3.6087962, 37.2078177]}, "properties": {"name": "Centro de Salud Cartuja", "kind": "clinic", "categoria": "sanidad", "osm_id": "way/804919094"}}, {"type": "Feature", "geometry": {"type": "Point", "coordinates": [-3.6100839, 37.1866342]}, "properties": {"name": "Farmacia La Caleta", "kind": "pharmacy", "categoria": "sanidad", "osm_id": "node/940382840"}}, {"type": "Feature", "geometry": {"type": "Point", "coordinates": [-3.6122755, 37.1863974]}, "properties": {"name": "Farmacia Los Pajaritos", "kind": "pharmacy", "categoria": "sanidad", "osm_id": "node/940392096"}}, {"type": "Feature", "geometry": {"type": "Point", "coordinates": [-3.6038448, 37.1784059]}, "properties": {"name": "Farmacia Nestares", "kind": "pharmacy", "categoria": "sanidad", "osm_id": "node/940433220"}}, {"type": "Feature", "geometry": {"type": "Point", "coordinates": [-3.6034517, 37.1839205]}, "properties": {"name": "Farmacia Aguilera", "kind": "pharmacy", "categoria": "sanidad", "osm_id": "node/947091889"}}, {"type": "Feature", "geometry": {"type": "Point", "coordinates": [-3.5849978, 37.1611987]}, "properties": {"name": "Farmacia Bola de Oro", "kind": "pharmacy", "categoria": "sanidad", "osm_id": "node/951468367"}}, {"type": "Feature", "geometry": {"type": "Point", "coordinates": [-3.5884379, 37.1626816]}, "properties": {"name": "Farmacia Sancho Panza", "kind": "pharmacy", "categoria": "sanidad", "osm_id": "node/951537035"}}, {"type": "Feature", "geometry": {"type": "Point", "coordinates": [-3.6173981, 37.1974574]}, "properties": {"name": "Centro de Salud Albayda La Cruz", "kind": "clinic", "categoria": "sanidad", "osm_id": "way/1082272073"}}, {"type": "Feature", "geometry": {"type": "Point", "coordinates": [-3.5854577, 37.1604238]}, "properties": {"name": "Centro de Salud Bola de Oro", "kind": "clinic", "categoria": "sanidad", "osm_id": "way/1082272074"}}, {"type": "Feature", "geometry": {"type": "Point", "coordinates": [-3.5925146, 37.1816212]}, "properties": {"name": "Centro de Salud Albaycín", "kind": "clinic", "categoria": "sanidad", "osm_id": "way/1082825071"}}, {"type": "Feature", "geometry": {"type": "Point", "coordinates": [-3.6277994, 37.1923759]}, "properties": {"name": "Centro de Salud La Chana", "kind": "clinic", "categoria": "sanidad", "osm_id": "way/1082861189"}}, {"type": "Feature", "geometry": {"type": "Point", "coordinates": [-3.6107606, 37.18884]}, "properties": {"name": "Hospital Materno-Infantil del Hospital Universitario Virgen de las Nieves", "kind": "hospital", "categoria": "sanidad", "osm_id": "way/1094446065"}}, {"type": "Feature", "geometry": {"type": "Point", "coordinates": [-3.6054511, 37.1877777]}, "properties": {"name": "Hospital Doctor Olóriz", "kind": "hospital", "categoria": "sanidad", "osm_id": "way/1122753827"}}, {"type": "Feature", "geometry": {"type": "Point", "coordinates": [-3.6010461, 37.1813915]}, "properties": {"name": "Centro de Salud Fortuny-Velutti", "kind": "clinic", "categoria": "sanidad", "osm_id": "node/1352744630"}}, {"type": "Feature", "geometry": {"type": "Point", "coordinates": [-3.5969769, 37.1726243]}, "properties": {"name": "Farmacia Granada Centro", "kind": "pharmacy", "categoria": "sanidad", "osm_id": "node/1386545680"}}, {"type": "Feature", "geometry": {"type": "Point", "coordinates": [-3.5890907, 37.1602203]}, "properties": {"name": "Antonio Rafael Baquero Olmos", "kind": "pharmacy", "categoria": "sanidad", "osm_id": "node/1420233546"}}, {"type": "Feature", "geometry": {"type": "Point", "coordinates": [-3.5866519, 37.1571298]}, "properties": {"name": "Farmacia Sancho de Mesa", "kind": "pharmacy", "categoria": "sanidad", "osm_id": "node/1420237089"}}, {"type": "Feature", "geometry": {"type": "Point", "coordinates": [-3.5933249, 37.159556]}, "properties": {"name": "Farmacia Europa", "kind": "pharmacy", "categoria": "sanidad", "osm_id": "node/1453818855"}}, {"type": "Feature", "geometry": {"type": "Point", "coordinates": [-3.6085184, 37.1934787]}, "properties": {"name": "Beiro", "kind": "pharmacy", "categoria": "sanidad", "osm_id": "node/1457873425"}}, {"type": "Feature", "geometry": {"type": "Point", "coordinates": [-3.591875, 37.1529331]}, "properties": {"name": "Farmacia Palacio de Deportes", "kind": "pharmacy", "categoria": "sanidad", "osm_id": "node/1472937219"}}, {"type": "Feature", "geometry": {"type": "Point", "coordinates": [-3.6085214, 37.1595041]}, "properties": {"name": "Farmacia Forum 24", "kind": "pharmacy", "categoria": "sanidad", "osm_id": "node/1537996335"}}, {"type": "Feature", "geometry": {"type": "Point", "coordinates": [-3.6071139, 37.1699351]}, "properties": {"name": "Farmacia Cuerda", "kind": "pharmacy", "categoria": "sanidad", "osm_id": "node/1738354001"}}, {"type": "Feature", "geometry": {"type": "Point", "coordinates": [-3.6023878, 37.1640353]}, "properties": {"name": "Farmacia Óptica Jardín de la Reina", "kind": "pharmacy", "categoria": "sanidad", "osm_id": "node/1809455447"}}, {"type": "Feature", "geometry": {"type": "Point", "coordinates": [-3.5909522, 37.1585519]}, "properties": {"name": "Farmacia El Laurel de Mirasierra", "kind": "pharmacy", "categoria": "sanidad", "osm_id": "node/1841963715"}}, {"type": "Feature", "geometry": {"type": "Point", "coordinates": [-3.5948294, 37.166367]}, "properties": {"name": "Centro de Salud Poeta Manuel de Góngora", "kind": "clinic", "categoria": "sanidad", "osm_id": "node/1897894616"}}, {"type": "Feature", "geometry": {"type": "Point", "coordinates": [-3.5949831, 37.1665443]}, "properties": {"name": "Farmacia Góngora", "kind": "pharmacy", "categoria": "sanidad", "osm_id": "node/1897894620"}}, {"type": "Feature", "geometry": {"type": "Point", "coordinates": [-3.5944722, 37.1654295]}, "properties": {"name": "Farmacia Poveda", "kind": "pharmacy", "categoria": "sanidad", "osm_id": "node/1897894623"}}, {"type": "Feature", "geometry": {"type": "Point", "coordinates": [-3.5948721, 37.1603321]}, "properties": {"name": "Farmacia La Hípica", "kind": "pharmacy", "categoria": "sanidad", "osm_id": "node/1897938277"}}, {"type": "Feature", "geometry": {"type": "Point", "coordinates": [-3.6111546, 37.1792275]}, "properties": {"name": "Farmacia San Vicente", "kind": "pharmacy", "categoria": "sanidad", "osm_id": "node/2255185478"}}, {"type": "Feature", "geometry": {"type": "Point", "coordinates": [-3.6010676, 37.1524666]}, "properties": {"name": "Farmacia Mingorance", "kind": "pharmacy", "categoria": "sanidad", "osm_id": "node/3029450497"}}, {"type": "Feature", "geometry": {"type": "Point", "coordinates": [-3.5983284, 37.1534988]}, "properties": {"name": "Farmacia Licenciada Alejandra Cerdá Olmedo", "kind": "pharmacy", "categoria": "sanidad", "osm_id": "node/3029450498"}}, {"type": "Feature", "geometry": {"type": "Point", "coordinates": [-3.605381, 37.1544543]}, "properties": {"name": "Farmacia El Carmelo", "kind": "pharmacy", "categoria": "sanidad", "osm_id": "node/3029450499"}}, {"type": "Feature", "geometry": {"type": "Point", "coordinates": [-3.5998798, 37.1554576]}, "properties": {"name": "Farmacia Almudena Jiménez", "kind": "pharmacy", "categoria": "sanidad", "osm_id": "node/3085735038"}}, {"type": "Feature", "geometry": {"type": "Point", "coordinates": [-3.601184, 37.1707693]}, "properties": {"name": "Farmacia San José", "kind": "pharmacy", "categoria": "sanidad", "osm_id": "node/3087359933"}}, {"type": "Feature", "geometry": {"type": "Point", "coordinates": [-3.5997656, 37.1730499]}, "properties": {"name": "Farmacia Zarco Ríos", "kind": "pharmacy", "categoria": "sanidad", "osm_id": "node/3087359935"}}, {"type": "Feature", "geometry": {"type": "Point", "coordinates": [-3.6117473, 37.1775246]}, "properties": {"name": "Farmacia Mónica", "kind": "pharmacy", "categoria": "sanidad", "osm_id": "node/3087359938"}}, {"type": "Feature", "geometry": {"type": "Point", "coordinates": [-3.5994233, 37.1738899]}, "properties": {"name": "Farmacia Martín Valverde", "kind": "pharmacy", "categoria": "sanidad", "osm_id": "node/3087360133"}}, {"type": "Feature", "geometry": {"type": "Point", "coordinates": [-3.5966083, 37.1762383]}, "properties": {"name": "Farmacia Olivares", "kind": "pharmacy", "categoria": "sanidad", "osm_id": "node/3087360233"}}, {"type": "Feature", "geometry": {"type": "Point", "coordinates": [-3.6143655, 37.1882381]}, "properties": {"name": "Farmacia Moyano", "kind": "pharmacy", "categoria": "sanidad", "osm_id": "node/3098368504"}}, {"type": "Feature", "geometry": {"type": "Point", "coordinates": [-3.6125216, 37.1814642]}, "properties": {"name": "Farmacia Óptica Paredes", "kind": "pharmacy", "categoria": "sanidad", "osm_id": "node/3106520672"}}, {"type": "Feature", "geometry": {"type": "Point", "coordinates": [-3.6123842, 37.188546]}, "properties": {"name": "Farmacia Porres", "kind": "pharmacy", "categoria": "sanidad", "osm_id": "node/3146991958"}}, {"type": "Feature", "geometry": {"type": "Point", "coordinates": [-3.6150843, 37.1860893]}, "properties": {"name": "Farmacia Patricia Molina Hita", "kind": "pharmacy", "categoria": "sanidad", "osm_id": "node/3167202161"}}, {"type": "Feature", "geometry": {"type": "Point", "coordinates": [-3.6182128, 37.1879946]}, "properties": {"name": "Farmacia Ricardo Jesús Díaz García", "kind": "pharmacy", "categoria": "sanidad", "osm_id": "node/3276618266"}}, {"type": "Feature", "geometry": {"type": "Point", "coordinates": [-3.6090167, 37.185089]}, "properties": {"name": "Farmacia Andaluces", "kind": "pharmacy", "categoria": "sanidad", "osm_id": "node/3473060404"}}, {"type": "Feature", "geometry": {"type": "Point", "coordinates": [-3.5920451, 37.1618167]}, "properties": {"name": "Farmacia Zayas", "kind": "pharmacy", "categoria": "sanidad", "osm_id": "node/3474649518"}}, {"type": "Feature", "geometry": {"type": "Point", "coordinates": [-3.6041365, 37.1670386]}, "properties": {"name": "Farmacia Frasquet", "kind": "pharmacy", "categoria": "sanidad", "osm_id": "node/3481285297"}}, {"type": "Feature", "geometry": {"type": "Point", "coordinates": [-3.6059283, 37.1679584]}, "properties": {"name": "Farmacia Las Flores", "kind": "pharmacy", "categoria": "sanidad", "osm_id": "node/3496653371"}}, {"type": "Feature", "geometry": {"type": "Point", "coordinates": [-3.5974261, 37.1606984]}, "properties": {"name": "Farmacia Fuentes Sánchez", "kind": "pharmacy", "categoria": "sanidad", "osm_id": "node/3514686378"}}, {"type": "Feature", "geometry": {"type": "Point", "coordinates": [-3.6012233, 37.1623051]}, "properties": {"name": "Farmacia María Córdoba", "kind": "pharmacy", "categoria": "sanidad", "osm_id": "node/3514699107"}}, {"type": "Feature", "geometry": {"type": "Point", "coordinates": [-3.6064115, 37.1714952]}, "properties": {"name": "Farmacia Acosta", "kind": "pharmacy", "categoria": "sanidad", "osm_id": "node/3527765308"}}, {"type": "Feature", "geometry": {"type": "Point", "coordinates": [-3.6000052, 37.1740089]}, "properties": {"name": "Farmacia Gálvez", "kind": "pharmacy", "categoria": "sanidad", "osm_id": "node/3656354134"}}, {"type": "Feature", "geometry": {"type": "Point", "coordinates": [-3.6075061, 37.1749632]}, "properties": {"name": "Centro Médico Adeslas Granada", "kind": "clinic", "categoria": "sanidad", "osm_id": "node/3765264775"}}, {"type": "Feature", "geometry": {"type": "Point", "coordinates": [-3.6094009, 37.1764175]}, "properties": {"name": "Farmacia Pérez Alba", "kind": "pharmacy", "categoria": "sanidad", "osm_id": "node/3765339085"}}, {"type": "Feature", "geometry": {"type": "Point", "coordinates": [-3.5962074, 37.1740751]}, "properties": {"name": "Farmacia Eloína Pérez de Andrade", "kind": "pharmacy", "categoria": "sanidad", "osm_id": "node/3783647757"}}, {"type": "Feature", "geometry": {"type": "Point", "coordinates": [-3.6173417, 37.1988817]}, "properties": {"name": "Emilia Reyes Parra", "kind": "pharmacy", "categoria": "sanidad", "osm_id": "node/3854169181"}}, {"type": "Feature", "geometry": {"type": "Point", "coordinates": [-3.6084242, 37.1897959]}, "properties": {"name": "Farmacia Virgen de las Nieves", "kind": "pharmacy", "categoria": "sanidad", "osm_id": "node/4051784690"}}, {"type": "Feature", "geometry": {"type": "Point", "coordinates": [-3.6102381, 37.1893583]}, "properties": {"name": "Farmacia Carrillo Perálvarez", "kind": "pharmacy", "categoria": "sanidad", "osm_id": "node/4051793793"}}, {"type": "Feature", "geometry": {"type": "Point", "coordinates": [-3.6102744, 37.1905591]}, "properties": {"name": "Farmacia Licenciada Josefina Hernández Bernal", "kind": "pharmacy", "categoria": "sanidad", "osm_id": "node/4060096175"}}, {"type": "Feature", "geometry": {"type": "Point", "coordinates": [-3.5889967, 37.1648717]}, "properties": {"name": "Farmacia Quintalegre", "kind": "pharmacy", "categoria": "sanidad", "osm_id": "node/4361733314"}}, {"type": "Feature", "geometry": {"type": "Point", "coordinates": [-3.6061556, 37.1868548]}, "properties": {"name": "Clinica Noguerol", "kind": "clinic", "categoria": "sanidad", "osm_id": "node/4371726158"}}, {"type": "Feature", "geometry": {"type": "Point", "coordinates": [-3.602544, 37.1822417]}, "properties": {"name": "Farmacia San Juan de Dios", "kind": "pharmacy", "categoria": "sanidad", "osm_id": "node/4467887191"}}, {"type": "Feature", "geometry": {"type": "Point", "coordinates": [-3.5920059, 37.1825253]}, "properties": {"name": "Farmacia Elena Martín", "kind": "pharmacy", "categoria": "sanidad", "osm_id": "node/4770113237"}}, {"type": "Feature", "geometry": {"type": "Point", "coordinates": [-3.60212, 37.1853349]}, "properties": {"name": "Clínica Dental Orus", "kind": "clinic", "categoria": "sanidad", "osm_id": "node/4786054923"}}, {"type": "Feature", "geometry": {"type": "Point", "coordinates": [-3.5950109, 37.204526]}, "properties": {"name": null, "kind": "pharmacy", "categoria": "sanidad", "osm_id": "node/4963571478"}}, {"type": "Feature", "geometry": {"type": "Point", "coordinates": [-3.6188671, 37.1854165]}, "properties": {"name": "Farmacia Noguera", "kind": "pharmacy", "categoria": "sanidad", "osm_id": "node/5121439045"}}, {"type": "Feature", "geometry": {"type": "Point", "coordinates": [-3.6009882, 37.1757356]}, "properties": {"name": "Farmacia Colodro Catedral", "kind": "pharmacy", "categoria": "sanidad", "osm_id": "node/5307043922"}}, {"type": "Feature", "geometry": {"type": "Point", "coordinates": [-3.6052696, 37.176823]}, "properties": {"name": "Farmacia Dulce Nombre Islán Molero", "kind": "pharmacy", "categoria": "sanidad", "osm_id": "node/5308254637"}}, {"type": "Feature", "geometry": {"type": "Point", "coordinates": [-3.6027727, 37.1769403]}, "properties": {"name": "Farmacia Martínez del Mármol", "kind": "pharmacy", "categoria": "sanidad", "osm_id": "node/5309805724"}}, {"type": "Feature", "geometry": {"type": "Point", "coordinates": [-3.6067219, 37.1903591]}, "properties": {"name": "Farmacia Sáenz de Buruaga", "kind": "pharmacy", "categoria": "sanidad", "osm_id": "node/5776745758"}}, {"type": "Feature", "geometry": {"type": "Point", "coordinates": [-3.5976178, 37.1762181]}, "properties": {"name": "Farmacia Gran Vía", "kind": "pharmacy", "categoria": "sanidad", "osm_id": "node/5846122386"}}, {"type": "Feature", "geometry": {"type": "Point", "coordinates": [-3.6045287, 37.17448]}, "properties": {"name": "Farmacia Jiménez Romano", "kind": "pharmacy", "categoria": "sanidad", "osm_id": "node/5899231785"}}, {"type": "Feature", "geometry": {"type": "Point", "coordinates": [-3.6041762, 37.1729838]}, "properties": {"name": "Farmacia Plaza de Gracia", "kind": "pharmacy", "categoria": "sanidad", "osm_id": "node/5918036837"}}, {"type": "Feature", "geometry": {"type": "Point", "coordinates": [-3.5994991, 37.1688963]}, "properties": {"name": "Farmacia San Antón", "kind": "pharmacy", "categoria": "sanidad", "osm_id": "node/5970825393"}}, {"type": "Feature", "geometry": {"type": "Point", "coordinates": [-3.6049795, 37.169118]}, "properties": {"name": "Farmacia Cabezas", "kind": "pharmacy", "categoria": "sanidad", "osm_id": "node/5995226562"}}, {"type": "Feature", "geometry": {"type": "Point", "coordinates": [-3.6017102, 37.1764263]}, "properties": {"name": "Farmacia Plaza de Trinidad", "kind": "pharmacy", "categoria": "sanidad", "osm_id": "node/6257659993"}}, {"type": "Feature", "geometry": {"type": "Point", "coordinates": [-3.6080216, 37.1753932]}, "properties": {"name": "Farmacia Sánchez Molina", "kind": "pharmacy", "categoria": "sanidad", "osm_id": "node/6257659994"}}, {"type": "Feature", "geometry": {"type": "Point", "coordinates": [-3.6055584, 37.1810296]}, "properties": {"name": "Farmacia Vilela", "kind": "pharmacy", "categoria": "sanidad", "osm_id": "node/6353786619"}}, {"type": "Feature", "geometry": {"type": "Point", "coordinates": [-3.6100584, 37.1783807]}, "properties": {"name": "Farmacia del Pilar", "kind": "pharmacy", "categoria": "sanidad", "osm_id": "node/6711067547"}}, {"type": "Feature", "geometry": {"type": "Point", "coordinates": [-3.6099727, 37.1782453]}, "properties": {"name": "Almusalud", "kind": "clinic", "categoria": "sanidad", "osm_id": "node/6711089841"}}, {"type": "Feature", "geometry": {"type": "Point", "coordinates": [-3.6054469, 37.1884173]}, "properties": {"name": "Unidad de Cirugía de Alta Resolución", "kind": "clinic", "categoria": "sanidad", "osm_id": "node/7281802606"}}, {"type": "Feature", "geometry": {"type": "Point", "coordinates": [-3.6086771, 37.1845962]}, "properties": {"name": "Visióon", "kind": "clinic", "categoria": "sanidad", "osm_id": "node/7614228209"}}, {"type": "Feature", "geometry": {"type": "Point", "coordinates": [-3.6034115, 37.1790161]}, "properties": {"name": "Farmacia Gran Capitán", "kind": "pharmacy", "categoria": "sanidad", "osm_id": "node/7968248185"}}, {"type": "Feature", "geometry": {"type": "Point", "coordinates": [-3.6006628, 37.1748535]}, "properties": {"name": "Farmacia Nestares Mesones", "kind": "pharmacy", "categoria": "sanidad", "osm_id": "node/7988299182"}}, {"type": "Feature", "geometry": {"type": "Point", "coordinates": [-3.611548, 37.1792598]}, "properties": {"name": "Amédic Ronda", "kind": "clinic", "categoria": "sanidad", "osm_id": "node/8747000581"}}, {"type": "Feature", "geometry": {"type": "Point", "coordinates": [-3.6118119, 37.1794709]}, "properties": {"name": "C.V.G. Cirugía Vascular Granada", "kind": "doctors", "categoria": "sanidad", "osm_id": "node/8776520860"}}, {"type": "Feature", "geometry": {"type": "Point", "coordinates": [-3.605286, 37.1651403]}, "properties": {"name": "360 clinics", "kind": "doctors", "categoria": "sanidad", "osm_id": "node/8859892893"}}, {"type": "Feature", "geometry": {"type": "Point", "coordinates": [-3.5956279, 37.1668011]}, "properties": {"name": "Aurisen", "kind": "clinic", "categoria": "sanidad", "osm_id": "node/8913064517"}}, {"type": "Feature", "geometry": {"type": "Point", "coordinates": [-3.613508, 37.1796724]}, "properties": {"name": "Clínica Nikki Reina", "kind": "clinic", "categoria": "sanidad", "osm_id": "node/9204315391"}}, {"type": "Feature", "geometry": {"type": "Point", "coordinates": [-3.5964445, 37.166717]}, "properties": {"name": "Farmacia Valenzuela", "kind": "pharmacy", "categoria": "sanidad", "osm_id": "node/9494668586"}}, {"type": "Feature", "geometry": {"type": "Point", "coordinates": [-3.6115392, 37.1776963]}, "properties": {"name": "María Purificación Castro Mendoza", "kind": "doctors", "categoria": "sanidad", "osm_id": "node/9517541599"}}, {"type": "Feature", "geometry": {"type": "Point", "coordinates": [-3.6015757, 37.1677302]}, "properties": {"name": "Farmacia Nuestra Señora del Pilar", "kind": "pharmacy", "categoria": "sanidad", "osm_id": "node/9547212848"}}, {"type": "Feature", "geometry": {"type": "Point", "coordinates": [-3.6071585, 37.1718463]}, "properties": {"name": "Licenciado Núñez González", "kind": "pharmacy", "categoria": "sanidad", "osm_id": "node/9547249274"}}, {"type": "Feature", "geometry": {"type": "Point", "coordinates": [-3.5968812, 37.1687594]}, "properties": {"name": "Farmacia Celia Perales López", "kind": "pharmacy", "categoria": "sanidad", "osm_id": "node/9547657918"}}, {"type": "Feature", "geometry": {"type": "Point", "coordinates": [-3.598997, 37.1716468]}, "properties": {"name": "Farmacia Juan Domingo Conde", "kind": "pharmacy", "categoria": "sanidad", "osm_id": "node/9547664419"}}, {"type": "Feature", "geometry": {"type": "Point", "coordinates": [-3.5865882, 37.1603116]}, "properties": {"name": "Farmacia Molina Espínola", "kind": "pharmacy", "categoria": "sanidad", "osm_id": "node/9550249401"}}, {"type": "Feature", "geometry": {"type": "Point", "coordinates": [-3.6018846, 37.1498086]}, "properties": {"name": "Farmacia PTS", "kind": "pharmacy", "categoria": "sanidad", "osm_id": "node/9558222775"}}, {"type": "Feature", "geometry": {"type": "Point", "coordinates": [-3.5874406, 37.1584408]}, "properties": {"name": "Farmacia Patricia Contreras Martos", "kind": "pharmacy", "categoria": "sanidad", "osm_id": "node/9560750115"}}, {"type": "Feature", "geometry": {"type": "Point", "coordinates": [-3.5959531, 37.1697763]}, "properties": {"name": "Farmacia Carrera de la Virgen", "kind": "pharmacy", "categoria": "sanidad", "osm_id": "node/9565410011"}}, {"type": "Feature", "geometry": {"type": "Point", "coordinates": [-3.6026505, 37.1798153]}, "properties": {"name": "Farmacia Perpetuo Socorro", "kind": "pharmacy", "categoria": "sanidad", "osm_id": "node/9565412906"}}, {"type": "Feature", "geometry": {"type": "Point", "coordinates": [-3.6002931, 37.1773354]}, "properties": {"name": "Farmacia Morales Gordo", "kind": "pharmacy", "categoria": "sanidad", "osm_id": "node/9565437345"}}, {"type": "Feature", "geometry": {"type": "Point", "coordinates": [-3.606563, 37.1849675]}, "properties": {"name": "Farmacia Constitución Granada", "kind": "pharmacy", "categoria": "sanidad", "osm_id": "node/9565494416"}}, {"type": "Feature", "geometry": {"type": "Point", "coordinates": [-3.6007875, 37.1820945]}, "properties": {"name": "Farmacia Gran Vía 54", "kind": "pharmacy", "categoria": "sanidad", "osm_id": "node/9565698905"}}, {"type": "Feature", "geometry": {"type": "Point", "coordinates": [-3.6062103, 37.1852852]}, "properties": {"name": "Farmacia Rafael Mora Montes", "kind": "pharmacy", "categoria": "sanidad", "osm_id": "node/9565708951"}}, {"type": "Feature", "geometry": {"type": "Point", "coordinates": [-3.5952903, 37.1644387]}, "properties": {"name": "Farmacia Vallecillos", "kind": "pharmacy", "categoria": "sanidad", "osm_id": "node/9566496439"}}, {"type": "Feature", "geometry": {"type": "Point", "coordinates": [-3.596497, 37.1633639]}, "properties": {"name": "Farmacia Laura López Baena", "kind": "pharmacy", "categoria": "sanidad", "osm_id": "node/9566509821"}}, {"type": "Feature", "geometry": {"type": "Point", "coordinates": [-3.6061872, 37.1723231]}, "properties": {"name": "Farmacia Flora Carmen Bullejos", "kind": "pharmacy", "categoria": "sanidad", "osm_id": "node/9585485937"}}, {"type": "Feature", "geometry": {"type": "Point", "coordinates": [-3.6076152, 37.1734715]}, "properties": {"name": "Farmacia Zayas", "kind": "pharmacy", "categoria": "sanidad", "osm_id": "node/9585487063"}}, {"type": "Feature", "geometry": {"type": "Point", "coordinates": [-3.5999431, 37.1724909]}, "properties": {"name": "Parafarmacia San Antón", "kind": "pharmacy", "categoria": "sanidad", "osm_id": "node/9603413654"}}, {"type": "Feature", "geometry": {"type": "Point", "coordinates": [-3.6023354, 37.1719613]}, "properties": {"name": "Farmacia Román-Marinetto", "kind": "pharmacy", "categoria": "sanidad", "osm_id": "node/9651062838"}}, {"type": "Feature", "geometry": {"type": "Point", "coordinates": [-3.604797, 37.1708471]}, "properties": {"name": "Farmacia Talon", "kind": "pharmacy", "categoria": "sanidad", "osm_id": "node/9691753872"}}, {"type": "Feature", "geometry": {"type": "Point", "coordinates": [-3.6029196, 37.1693534]}, "properties": {"name": "Farmacia Alonso", "kind": "pharmacy", "categoria": "sanidad", "osm_id": "node/9710800712"}}, {"type": "Feature", "geometry": {"type": "Point", "coordinates": [-3.6069796, 37.1715763]}, "properties": {"name": "Clínica Pedrosa", "kind": "clinic", "categoria": "sanidad", "osm_id": "node/9710872712"}}, {"type": "Feature", "geometry": {"type": "Point", "coordinates": [-3.6007071, 37.154699]}, "properties": {"name": "Farmacia Elena Taboada", "kind": "pharmacy", "categoria": "sanidad", "osm_id": "node/9710877280"}}, {"type": "Feature", "geometry": {"type": "Point", "coordinates": [-3.6017198, 37.1658892]}, "properties": {"name": "Farmacia Helena Soldevila", "kind": "pharmacy", "categoria": "sanidad", "osm_id": "node/9711308623"}}, {"type": "Feature", "geometry": {"type": "Point", "coordinates": [-3.592848, 37.1837426]}, "properties": {"name": "Farmacia Antonio Jesús Guiote Ordóñez", "kind": "pharmacy", "categoria": "sanidad", "osm_id": "node/9900534221"}}, {"type": "Feature", "geometry": {"type": "Point", "coordinates": [-3.6000421, 37.177248]}, "properties": {"name": "Farmacia Román Molinero. El Salvador", "kind": "pharmacy", "categoria": "sanidad", "osm_id": "node/9902488520"}}, {"type": "Feature", "geometry": {"type": "Point", "coordinates": [-3.5979696, 37.17347]}, "properties": {"name": "Farmacia Caballero", "kind": "pharmacy", "categoria": "sanidad", "osm_id": "node/9902516017"}}, {"type": "Feature", "geometry": {"type": "Point", "coordinates": [-3.5939451, 37.1735252]}, "properties": {"name": "Farmacia Realejo 2", "kind": "pharmacy", "categoria": "sanidad", "osm_id": "node/9904126418"}}, {"type": "Feature", "geometry": {"type": "Point", "coordinates": [-3.5973791, 37.1711325]}, "properties": {"name": "Farmacia Silles Morillas", "kind": "pharmacy", "categoria": "sanidad", "osm_id": "node/9904126521"}}, {"type": "Feature", "geometry": {"type": "Point", "coordinates": [-3.5975704, 37.1721823]}, "properties": {"name": "Farmacia Ángel Martínez Serrano", "kind": "pharmacy", "categoria": "sanidad", "osm_id": "node/9904129417"}}, {"type": "Feature", "geometry": {"type": "Point", "coordinates": [-3.6093213, 37.1890351]}, "properties": {"name": "Centro de Salud Doctor Salvador Caballero García", "kind": "clinic", "categoria": "sanidad", "osm_id": "node/9927883833"}}, {"type": "Feature", "geometry": {"type": "Point", "coordinates": [-3.6036492, 37.1685154]}, "properties": {"name": "Centro de Salud Fígares", "kind": "clinic", "categoria": "sanidad", "osm_id": "node/9927883834"}}, {"type": "Feature", "geometry": {"type": "Point", "coordinates": [-3.5908699, 37.1731962]}, "properties": {"name": "Centro de Salud Realejo", "kind": "clinic", "categoria": "sanidad", "osm_id": "node/9928093888"}}, {"type": "Feature", "geometry": {"type": "Point", "coordinates": [-3.5914655, 37.1569205]}, "properties": {"name": "Farmacia juan Angel fernandez", "kind": "pharmacy", "categoria": "sanidad", "osm_id": "node/9966728384"}}, {"type": "Feature", "geometry": {"type": "Point", "coordinates": [-3.5835665, 37.1657599]}, "properties": {"name": "Centro de Salud Carretera de la Sierra", "kind": "clinic", "categoria": "sanidad", "osm_id": "node/9984863328"}}, {"type": "Feature", "geometry": {"type": "Point", "coordinates": [-3.6268032, 37.2030861]}, "properties": {"name": "Consultorio Cerrillo de Maracena", "kind": "clinic", "categoria": "sanidad", "osm_id": "node/9984863329"}}, {"type": "Feature", "geometry": {"type": "Point", "coordinates": [-3.5638017, 37.2036412]}, "properties": {"name": "Consultorio El Fargue", "kind": "doctors", "categoria": "sanidad", "osm_id": "node/9984863330"}}, {"type": "Feature", "geometry": {"type": "Point", "coordinates": [-3.595649, 37.2029194]}, "properties": {"name": "Consultorio Parque Nueva Granada", "kind": "doctors", "categoria": "sanidad", "osm_id": "node/9984863331"}}, {"type": "Feature", "geometry": {"type": "Point", "coordinates": [-3.598649, 37.1780677]}, "properties": {"name": "Farmacia Sagrado Corazón", "kind": "pharmacy", "categoria": "sanidad", "osm_id": "node/9989925091"}}, {"type": "Feature", "geometry": {"type": "Point", "coordinates": [-3.5981687, 37.1601958]}, "properties": {"name": "Botica Mirasol", "kind": "pharmacy", "categoria": "sanidad", "osm_id": "node/10001530743"}}, {"type": "Feature", "geometry": {"type": "Point", "coordinates": [-3.5987797, 37.1618772]}, "properties": {"name": "Farmacia Pura Vida", "kind": "pharmacy", "categoria": "sanidad", "osm_id": "node/10004192661"}}, {"type": "Feature", "geometry": {"type": "Point", "coordinates": [-3.6002835, 37.1602021]}, "properties": {"name": "Farmacia González y Vera", "kind": "pharmacy", "categoria": "sanidad", "osm_id": "node/10004213886"}}, {"type": "Feature", "geometry": {"type": "Point", "coordinates": [-3.6077815, 37.1784944]}, "properties": {"name": "Neurología Clínica Doctor Rafael González Maldonado", "kind": "clinic", "categoria": "sanidad", "osm_id": "node/10104482843"}}, {"type": "Feature", "geometry": {"type": "Point", "coordinates": [-3.5999845, 37.1597591]}, "properties": {"name": "Farmacia Viedma", "kind": "pharmacy", "categoria": "sanidad", "osm_id": "node/10186428031"}}, {"type": "Feature", "geometry": {"type": "Point", "coordinates": [-3.6023411, 37.1495343]}, "properties": {"name": "Clínica Doctora Ana Maldonado", "kind": "clinic", "categoria": "sanidad", "osm_id": "node/10188084060"}}, {"type": "Feature", "geometry": {"type": "Point", "coordinates": [-3.6020139, 37.1496179]}, "properties": {"name": "Clínicas Doctor Olóriz", "kind": "clinic", "categoria": "sanidad", "osm_id": "node/10188084297"}}, {"type": "Feature", "geometry": {"type": "Point", "coordinates": [-3.606823, 37.1778412]}, "properties": {"name": "Farmacia Melchor Almagro", "kind": "pharmacy", "categoria": "sanidad", "osm_id": "node/10223219079"}}, {"type": "Feature", "geometry": {"type": "Point", "coordinates": [-3.614365, 37.1838593]}, "properties": {"name": "Farmacia La Redonda", "kind": "pharmacy", "categoria": "sanidad", "osm_id": "node/10282810274"}}, {"type": "Feature", "geometry": {"type": "Point", "coordinates": [-3.5961845, 37.1769748]}, "properties": {"name": "Pharmacia Plaza Nueva", "kind": "pharmacy", "categoria": "sanidad", "osm_id": "node/10586947158"}}, {"type": "Feature", "geometry": {"type": "Point", "coordinates": [-3.5994127, 37.1788738]}, "properties": {"name": "Farmacia Óptica Acosta Gran Vía", "kind": "pharmacy", "categoria": "sanidad", "osm_id": "node/10696753207"}}, {"type": "Feature", "geometry": {"type": "Point", "coordinates": [-3.6009657, 37.1816925]}, "properties": {"name": "Valero", "kind": "pharmacy", "categoria": "sanidad", "osm_id": "node/10696758005"}}, {"type": "Feature", "geometry": {"type": "Point", "coordinates": [-3.607573, 37.175063]}, "properties": {"name": "Centro de Psicología Aaron Beck", "kind": "clinic", "categoria": "sanidad", "osm_id": "node/10981193676"}}, {"type": "Feature", "geometry": {"type": "Point", "coordinates": [-3.6083774, 37.1865688]}, "properties": {"name": "Óptica Farmacia Ocete", "kind": "pharmacy", "categoria": "sanidad", "osm_id": "node/11043861242"}}, {"type": "Feature", "geometry": {"type": "Point", "coordinates": [-3.5976449, 37.1596566]}, "properties": {"name": "Farmacia Carrillo", "kind": "pharmacy", "categoria": "sanidad", "osm_id": "node/11207009083"}}, {"type": "Feature", "geometry": {"type": "Point", "coordinates": [-3.6063179, 37.1742595]}, "properties": {"name": "Farmacia Cristiá", "kind": "pharmacy", "categoria": "sanidad", "osm_id": "node/11217583051"}}, {"type": "Feature", "geometry": {"type": "Point", "coordinates": [-3.6013711, 37.1612217]}, "properties": {"name": "Farmacia Gavilán López", "kind": "pharmacy", "categoria": "sanidad", "osm_id": "node/11217590012"}}, {"type": "Feature", "geometry": {"type": "Point", "coordinates": [-3.6071403, 37.1726867]}, "properties": {"name": "Vistaláser", "kind": "doctors", "categoria": "sanidad", "osm_id": "node/11240979355"}}, {"type": "Feature", "geometry": {"type": "Point", "coordinates": [-3.6070002, 37.1724577]}, "properties": {"name": "Podoronda", "kind": "doctors", "categoria": "sanidad", "osm_id": "node/11240979359"}}, {"type": "Feature", "geometry": {"type": "Point", "coordinates": [-3.6074633, 37.1724045]}, "properties": {"name": "Meliora", "kind": "doctors", "categoria": "sanidad", "osm_id": "node/11240979360"}}, {"type": "Feature", "geometry": {"type": "Point", "coordinates": [-3.5937934, 37.161203]}, "properties": {"name": "Farmacia Ricardo Conde Sancho", "kind": "pharmacy", "categoria": "sanidad", "osm_id": "node/11393810165"}}, {"type": "Feature", "geometry": {"type": "Point", "coordinates": [-3.612431, 37.1792173]}, "properties": {"name": "Clínica Leire Arteche Urrestarazu", "kind": "doctors", "categoria": "sanidad", "osm_id": "node/11487189970"}}, {"type": "Feature", "geometry": {"type": "Point", "coordinates": [-3.6084339, 37.1848301]}, "properties": {"name": "Nukala Fisioterapia", "kind": "clinic", "categoria": "sanidad", "osm_id": "node/11574548022"}}, {"type": "Feature", "geometry": {"type": "Point", "coordinates": [-3.6104773, 37.1780883]}, "properties": {"name": "Farmacia La Botica de Dulce", "kind": "pharmacy", "categoria": "sanidad", "osm_id": "node/11630032142"}}, {"type": "Feature", "geometry": {"type": "Point", "coordinates": [-3.6201797, 37.1831607]}, "properties": {"name": "Farmacia Parque Rosaleda", "kind": "pharmacy", "categoria": "sanidad", "osm_id": "node/11630128191"}}, {"type": "Feature", "geometry": {"type": "Point", "coordinates": [-3.6133267, 37.1797639]}, "properties": {"name": "Farmacia Pablo Fernández Sánchez", "kind": "pharmacy", "categoria": "sanidad", "osm_id": "node/11630130919"}}, {"type": "Feature", "geometry": {"type": "Point", "coordinates": [-3.6148288, 37.1812239]}, "properties": {"name": "Farmacia Rosa María Pérez Ávila", "kind": "pharmacy", "categoria": "sanidad", "osm_id": "node/11630141091"}}, {"type": "Feature", "geometry": {"type": "Point", "coordinates": [-3.6091504, 37.1746954]}, "properties": {"name": "Farmacia Pilar Brandi Blanco", "kind": "pharmacy", "categoria": "sanidad", "osm_id": "node/11645025236"}}, {"type": "Feature", "geometry": {"type": "Point", "coordinates": [-3.6085782, 37.1774315]}, "properties": {"name": "Farmacia Peran Montero", "kind": "pharmacy", "categoria": "sanidad", "osm_id": "node/11645071176"}}, {"type": "Feature", "geometry": {"type": "Point", "coordinates": [-3.606581, 37.1764207]}, "properties": {"name": "Farmacia Maria Isabel Sancho", "kind": "pharmacy", "categoria": "sanidad", "osm_id": "node/11645086691"}}, {"type": "Feature", "geometry": {"type": "Point", "coordinates": [-3.608125, 37.1847202]}, "properties": {"name": "Clínica del Sueño", "kind": "clinic", "categoria": "sanidad", "osm_id": "node/11709228642"}}, {"type": "Feature", "geometry": {"type": "Point", "coordinates": [-3.6107495, 37.1753613]}, "properties": {"name": "Farmacia Jose Manuel Pérez Jiménez", "kind": "pharmacy", "categoria": "sanidad", "osm_id": "node/11740768024"}}, {"type": "Feature", "geometry": {"type": "Point", "coordinates": [-3.6033873, 37.1676515]}, "properties": {"name": "Farmacia Iborra CB", "kind": "pharmacy", "categoria": "sanidad", "osm_id": "node/11747940935"}}, {"type": "Feature", "geometry": {"type": "Point", "coordinates": [-3.6033964, 37.1545868]}, "properties": {"name": "Farmacia Margarita Castellón", "kind": "pharmacy", "categoria": "sanidad", "osm_id": "node/11747987932"}}, {"type": "Feature", "geometry": {"type": "Point", "coordinates": [-3.6018605, 37.1649294]}, "properties": {"name": "Farmacia Víctor Maiquez Cañizares", "kind": "pharmacy", "categoria": "sanidad", "osm_id": "node/11748063497"}}, {"type": "Feature", "geometry": {"type": "Point", "coordinates": [-3.6016454, 37.1585642]}, "properties": {"name": "Farmacia Adolfo Antonio Robles Malo", "kind": "pharmacy", "categoria": "sanidad", "osm_id": "node/11806988032"}}, {"type": "Feature", "geometry": {"type": "Point", "coordinates": [-3.5998326, 37.1845752]}, "properties": {"name": "Farmacia San Ildefonso", "kind": "pharmacy", "categoria": "sanidad", "osm_id": "node/11873780243"}}, {"type": "Feature", "geometry": {"type": "Point", "coordinates": [-3.5999553, 37.157541]}, "properties": {"name": "Farmacia María Pilar Galisteo Cano", "kind": "pharmacy", "categoria": "sanidad", "osm_id": "node/11873819613"}}, {"type": "Feature", "geometry": {"type": "Point", "coordinates": [-3.5994351, 37.1609359]}, "properties": {"name": "Farmacia Sierra", "kind": "pharmacy", "categoria": "sanidad", "osm_id": "node/11873881809"}}, {"type": "Feature", "geometry": {"type": "Point", "coordinates": [-3.5991591, 37.1750314]}, "properties": {"name": "Farmacia Antonio Salto", "kind": "pharmacy", "categoria": "sanidad", "osm_id": "node/11873884981"}}, {"type": "Feature", "geometry": {"type": "Point", "coordinates": [-3.5992742, 37.1646723]}, "properties": {"name": "Farmacia María De Los Ángeles Roca Fernández", "kind": "pharmacy", "categoria": "sanidad", "osm_id": "node/11873897964"}}, {"type": "Feature", "geometry": {"type": "Point", "coordinates": [-3.5988815, 37.1733658]}, "properties": {"name": "Farmacia Nueva Ganivet", "kind": "pharmacy", "categoria": "sanidad", "osm_id": "node/11873967545"}}, {"type": "Feature", "geometry": {"type": "Point", "coordinates": [-3.6073988, 37.1641094]}, "properties": {"name": "Farmacia La Inmaculada", "kind": "pharmacy", "categoria": "sanidad", "osm_id": "node/11873972616"}}, {"type": "Feature", "geometry": {"type": "Point", "coordinates": [-3.6046934, 37.1654208]}, "properties": {"name": "Farmacia Isabel Azcón González De Aguilar", "kind": "pharmacy", "categoria": "sanidad", "osm_id": "node/11876242282"}}, {"type": "Feature", "geometry": {"type": "Point", "coordinates": [-3.5994981, 37.1743025]}, "properties": {"name": "Farmacia Josefa Álvarez Mendoza", "kind": "pharmacy", "categoria": "sanidad", "osm_id": "node/11883171451"}}, {"type": "Feature", "geometry": {"type": "Point", "coordinates": [-3.596746, 37.1578178]}, "properties": {"name": "Farmacia Ramón Olmo Sánchez", "kind": "pharmacy", "categoria": "sanidad", "osm_id": "node/11883276720"}}, {"type": "Feature", "geometry": {"type": "Point", "coordinates": [-3.5981678, 37.1514774]}, "properties": {"name": "Farmacia José María Ruiz Sequera", "kind": "pharmacy", "categoria": "sanidad", "osm_id": "node/11883282834"}}, {"type": "Feature", "geometry": {"type": "Point", "coordinates": [-3.5973153, 37.1553363]}, "properties": {"name": "Farmacia Moas Carballes", "kind": "pharmacy", "categoria": "sanidad", "osm_id": "node/11886027944"}}, {"type": "Feature", "geometry": {"type": "Point", "coordinates": [-3.5947758, 37.1627737]}, "properties": {"name": "Farmacia Garach Gómez", "kind": "pharmacy", "categoria": "sanidad", "osm_id": "node/11886102271"}}, {"type": "Feature", "geometry": {"type": "Point", "coordinates": [-3.5924806, 37.1725525]}, "properties": {"name": "Farmacia San Cecilio", "kind": "pharmacy", "categoria": "sanidad", "osm_id": "node/11906943748"}}, {"type": "Feature", "geometry": {"type": "Point", "coordinates": [-3.6101678, 37.1576476]}, "properties": {"name": "Medicina Estética Doctora Anastasia Cano", "kind": "clinic", "categoria": "sanidad", "osm_id": "node/11911714693"}}, {"type": "Feature", "geometry": {"type": "Point", "coordinates": [-3.6070339, 37.1664328]}, "properties": {"name": "Farmacia Guerrero López", "kind": "pharmacy", "categoria": "sanidad", "osm_id": "node/11913084160"}}, {"type": "Feature", "geometry": {"type": "Point", "coordinates": [-3.5920924, 37.1523214]}, "properties": {"name": "Farmacia Quesada Montoro", "kind": "pharmacy", "categoria": "sanidad", "osm_id": "node/11913209774"}}, {"type": "Feature", "geometry": {"type": "Point", "coordinates": [-3.5780061, 37.1577205]}, "properties": {"name": "Farmacia El Serallo", "kind": "pharmacy", "categoria": "sanidad", "osm_id": "node/11918137363"}}, {"type": "Feature", "geometry": {"type": "Point", "coordinates": [-3.5843874, 37.1661095]}, "properties": {"name": "Farmacia Núñez Terrón", "kind": "pharmacy", "categoria": "sanidad", "osm_id": "node/12056745874"}}, {"type": "Feature", "geometry": {"type": "Point", "coordinates": [-3.581201, 37.1651737]}, "properties": {"name": "Farmacia Agudo Aponte", "kind": "pharmacy", "categoria": "sanidad", "osm_id": "node/12056755557"}}, {"type": "Feature", "geometry": {"type": "Point", "coordinates": [-3.5708937, 37.1638609]}, "properties": {"name": "Farmacia Espigares", "kind": "pharmacy", "categoria": "sanidad", "osm_id": "node/12058722685"}}, {"type": "Feature", "geometry": {"type": "Point", "coordinates": [-3.5790207, 37.1645635]}, "properties": {"name": "Farmacia Sonia Ruiz Garcia", "kind": "pharmacy", "categoria": "sanidad", "osm_id": "node/12058739869"}}, {"type": "Feature", "geometry": {"type": "Point", "coordinates": [-3.6028448, 37.1563269]}, "properties": {"name": "Farmacia Navarro Rubio", "kind": "pharmacy", "categoria": "sanidad", "osm_id": "node/12058767343"}}, {"type": "Feature", "geometry": {"type": "Point", "coordinates": [-3.6050959, 37.1523317]}, "properties": {"name": "Framacia Tovar Zaidin", "kind": "pharmacy", "categoria": "sanidad", "osm_id": "node/12058769284"}}, {"type": "Feature", "geometry": {"type": "Point", "coordinates": [-3.6086562, 37.1939314]}, "properties": {"name": "Farmacia Ambrosio Bolivar", "kind": "pharmacy", "categoria": "sanidad", "osm_id": "node/12058981166"}}, {"type": "Feature", "geometry": {"type": "Point", "coordinates": [-3.6272746, 37.189271]}, "properties": {"name": "Farmacia Polo", "kind": "pharmacy", "categoria": "sanidad", "osm_id": "node/12058988974"}}, {"type": "Feature", "geometry": {"type": "Point", "coordinates": [-3.629115, 37.1926834]}, "properties": {"name": "Farmacia Castillo", "kind": "pharmacy", "categoria": "sanidad", "osm_id": "node/12058999587"}}, {"type": "Feature", "geometry": {"type": "Point", "coordinates": [-3.6199636, 37.1886241]}, "properties": {"name": "Farmacia Delia Sierra Aragón", "kind": "pharmacy", "categoria": "sanidad", "osm_id": "node/12059001403"}}, {"type": "Feature", "geometry": {"type": "Point", "coordinates": [-3.6247799, 37.2009309]}, "properties": {"name": "Farmacia Marti", "kind": "pharmacy", "categoria": "sanidad", "osm_id": "node/12059005736"}}, {"type": "Feature", "geometry": {"type": "Point", "coordinates": [-3.6261956, 37.1919313]}, "properties": {"name": "Farmacia Virgen de la Cabeza", "kind": "pharmacy", "categoria": "sanidad", "osm_id": "node/12059025654"}}, {"type": "Feature", "geometry": {"type": "Point", "coordinates": [-3.6235594, 37.1917295]}, "properties": {"name": "Farmacia La Chana", "kind": "pharmacy", "categoria": "sanidad", "osm_id": "node/12059028015"}}, {"type": "Feature", "geometry": {"type": "Point", "coordinates": [-3.6208972, 37.202287]}, "properties": {"name": "Farmacia Albayda", "kind": "pharmacy", "categoria": "sanidad", "osm_id": "node/12060865014"}}, {"type": "Feature", "geometry": {"type": "Point", "coordinates": [-3.620148, 37.1915479]}, "properties": {"name": "Farmacia La Encina Granada", "kind": "pharmacy", "categoria": "sanidad", "osm_id": "node/12060882587"}}, {"type": "Feature", "geometry": {"type": "Point", "coordinates": [-3.6230628, 37.1893169]}, "properties": {"name": "Farmacia Lainez", "kind": "pharmacy", "categoria": "sanidad", "osm_id": "node/12060886085"}}, {"type": "Feature", "geometry": {"type": "Point", "coordinates": [-3.6200434, 37.1980593]}, "properties": {"name": "Farmacia Osorio", "kind": "pharmacy", "categoria": "sanidad", "osm_id": "node/12060891102"}}, {"type": "Feature", "geometry": {"type": "Point", "coordinates": [-3.6159681, 37.2006172]}, "properties": {"name": "Farmacia Gran Parque", "kind": "pharmacy", "categoria": "sanidad", "osm_id": "node/12061021192"}}, {"type": "Feature", "geometry": {"type": "Point", "coordinates": [-3.6169603, 37.2090422]}, "properties": {"name": "Farmacia Granados Martin", "kind": "pharmacy", "categoria": "sanidad", "osm_id": "node/12061073058"}}, {"type": "Feature", "geometry": {"type": "Point", "coordinates": [-3.611826, 37.204279]}, "properties": {"name": "Farmacia el Milagro", "kind": "pharmacy", "categoria": "sanidad", "osm_id": "node/12061089452"}}, {"type": "Feature", "geometry": {"type": "Point", "coordinates": [-3.6098783, 37.2014193]}, "properties": {"name": "Farmacia Josefina Herrero Ñiguez", "kind": "pharmacy", "categoria": "sanidad", "osm_id": "node/12061112356"}}, {"type": "Feature", "geometry": {"type": "Point", "coordinates": [-3.6077945, 37.2001422]}, "properties": {"name": "Farmacia Mateo Gonzalez Carrascosa", "kind": "pharmacy", "categoria": "sanidad", "osm_id": "node/12167755077"}}, {"type": "Feature", "geometry": {"type": "Point", "coordinates": [-3.61105, 37.1997595]}, "properties": {"name": "Framacia Jose Antonio Sánchez", "kind": "pharmacy", "categoria": "sanidad", "osm_id": "node/12167787432"}}, {"type": "Feature", "geometry": {"type": "Point", "coordinates": [-3.6116362, 37.2106432]}, "properties": {"name": "Farmacia Lucrecia García Peláez", "kind": "pharmacy", "categoria": "sanidad", "osm_id": "node/12167797291"}}, {"type": "Feature", "geometry": {"type": "Point", "coordinates": [-3.6063047, 37.2059595]}, "properties": {"name": "Farmacia Cabrera Peña", "kind": "pharmacy", "categoria": "sanidad", "osm_id": "node/12174379254"}}, {"type": "Feature", "geometry": {"type": "Point", "coordinates": [-3.6072133, 37.1878885]}, "properties": {"name": "Farmacia L. Sáenz de Buruaga", "kind": "pharmacy", "categoria": "sanidad", "osm_id": "node/12174395689"}}, {"type": "Feature", "geometry": {"type": "Point", "coordinates": [-3.6079443, 37.1914034]}, "properties": {"name": "Farmacia Porres", "kind": "pharmacy", "categoria": "sanidad", "osm_id": "node/12174401641"}}, {"type": "Feature", "geometry": {"type": "Point", "coordinates": [-3.6092632, 37.1959949]}, "properties": {"name": "Farmacia Ana María Blanca", "kind": "pharmacy", "categoria": "sanidad", "osm_id": "node/12174403813"}}, {"type": "Feature", "geometry": {"type": "Point", "coordinates": [-3.6092787, 37.2037439]}, "properties": {"name": "Farmacia Baldomero Sierra", "kind": "pharmacy", "categoria": "sanidad", "osm_id": "node/12174417853"}}, {"type": "Feature", "geometry": {"type": "Point", "coordinates": [-3.6045768, 37.1948927]}, "properties": {"name": "Farmacia Olivares Tamayo", "kind": "pharmacy", "categoria": "sanidad", "osm_id": "node/12174613837"}}, {"type": "Feature", "geometry": {"type": "Point", "coordinates": [-3.6058225, 37.2079063]}, "properties": {"name": "Farmacia Almanjayar", "kind": "pharmacy", "categoria": "sanidad", "osm_id": "node/12174617504"}}, {"type": "Feature", "geometry": {"type": "Point", "coordinates": [-3.6043537, 37.1967065]}, "properties": {"name": "Farmacia Raquel González Lozoya", "kind": "pharmacy", "categoria": "sanidad", "osm_id": "node/12174618897"}}, {"type": "Feature", "geometry": {"type": "Point", "coordinates": [-3.604451, 37.2072149]}, "properties": {"name": "Farmacia M Mercedes Barroinuevo Díaz", "kind": "pharmacy", "categoria": "sanidad", "osm_id": "node/12174629330"}}, {"type": "Feature", "geometry": {"type": "Point", "coordinates": [-3.6033498, 37.1867916]}, "properties": {"name": "Farmacia San Isidro Granada", "kind": "pharmacy", "categoria": "sanidad", "osm_id": "node/12174631534"}}, {"type": "Feature", "geometry": {"type": "Point", "coordinates": [-3.601664, 37.2009233]}, "properties": {"name": "Farmacia Mónica Revilla", "kind": "pharmacy", "categoria": "sanidad", "osm_id": "node/12174631794"}}, {"type": "Feature", "geometry": {"type": "Point", "coordinates": [-3.600382, 37.2029376]}, "properties": {"name": "Farmacia Marina Serrano Peñuela", "kind": "pharmacy", "categoria": "sanidad", "osm_id": "node/12174694845"}}, {"type": "Feature", "geometry": {"type": "Point", "coordinates": [-3.5989718, 37.1982717]}, "properties": {"name": "Farmacia Cayetano Sierra Aragón", "kind": "pharmacy", "categoria": "sanidad", "osm_id": "node/12174728528"}}, {"type": "Feature", "geometry": {"type": "Point", "coordinates": [-3.5941035, 37.2046606]}, "properties": {"name": "Farmacia Parque Nueva Granada Soledad Avila Rojas", "kind": "pharmacy", "categoria": "sanidad", "osm_id": "node/12174756697"}}, {"type": "Feature", "geometry": {"type": "Point", "coordinates": [-3.6045457, 37.1494591]}, "properties": {"name": "Farmacia Campus de la Salud", "kind": "pharmacy", "categoria": "sanidad", "osm_id": "node/12174813490"}}, {"type": "Feature", "geometry": {"type": "Point", "coordinates": [-3.6271225, 37.1863021]}, "properties": {"name": "Farmacia Alquerías", "kind": "pharmacy", "categoria": "sanidad", "osm_id": "node/12181905608"}}, {"type": "Feature", "geometry": {"type": "Point", "coordinates": [-3.6143124, 37.1900596]}, "properties": {"name": "Farmacia Concepción Manrique Cecilia", "kind": "pharmacy", "categoria": "sanidad", "osm_id": "node/12241164279"}}, {"type": "Feature", "geometry": {"type": "Point", "coordinates": [-3.6044549, 37.2052552]}, "properties": {"name": "Farmacia Suazo", "kind": "pharmacy", "categoria": "sanidad", "osm_id": "node/12241168642"}}, {"type": "Feature", "geometry": {"type": "Point", "coordinates": [-3.6301998, 37.1911636]}, "properties": {"name": "Farmacia Goyri", "kind": "pharmacy", "categoria": "sanidad", "osm_id": "node/12241179957"}}, {"type": "Feature", "geometry": {"type": "Point", "coordinates": [-3.6057519, 37.1998669]}, "properties": {"name": "Farmacia Blanca", "kind": "pharmacy", "categoria": "sanidad", "osm_id": "node/12241180221"}}, {"type": "Feature", "geometry": {"type": "Point", "coordinates": [-3.6000416, 37.1873657]}, "properties": {"name": "Farmacia Optica Real de Cartuja", "kind": "pharmacy", "categoria": "sanidad", "osm_id": "node/12241180409"}}, {"type": "Feature", "geometry": {"type": "Point", "coordinates": [-3.6000658, 37.1590192]}, "properties": {"name": "Clínica Médica San Carlos", "kind": "clinic", "categoria": "sanidad", "osm_id": "node/12561010762"}}, {"type": "Feature", "geometry": {"type": "Point", "coordinates": [-3.6077773, 37.1875495]}, "properties": {"name": "Clínica Previmed", "kind": "clinic", "categoria": "sanidad", "osm_id": "node/12564746666"}}, {"type": "Feature", "geometry": {"type": "Point", "coordinates": [-3.605159, 37.1904748]}, "properties": {"name": "Centro Médico Vithas Granada", "kind": "clinic", "categoria": "sanidad", "osm_id": "node/12564776380"}}, {"type": "Feature", "geometry": {"type": "Point", "coordinates": [-3.6078894, 37.1963485]}, "properties": {"name": "Clínica Granada Norte", "kind": "clinic", "categoria": "sanidad", "osm_id": "node/12578760286"}}, {"type": "Feature", "geometry": {"type": "Point", "coordinates": [-3.6108157, 37.1770838]}, "properties": {"name": "Almusalud", "kind": "clinic", "categoria": "sanidad", "osm_id": "node/12686739570"}}, {"type": "Feature", "geometry": {"type": "Point", "coordinates": [-3.6103186, 37.1772083]}, "properties": {"name": "Clínica Doctor Conde", "kind": "clinic", "categoria": "sanidad", "osm_id": "node/12686739572"}}, {"type": "Feature", "geometry": {"type": "Point", "coordinates": [-3.6159474, 37.1904073]}, "properties": {"name": "Oncogranada", "kind": "clinic", "categoria": "sanidad", "osm_id": "node/13334382875"}}, {"type": "Feature", "geometry": {"type": "Point", "coordinates": [-3.612695, 37.1990137]}, "properties": {"name": "Granada estación", "kind": "pharmacy", "categoria": "sanidad", "osm_id": "node/13357267993"}}, {"type": "Feature", "geometry": {"type": "Point", "coordinates": [-3.625816, 37.1937333]}, "properties": {"name": "Aranda Morales C.B.", "kind": "pharmacy", "categoria": "sanidad", "osm_id": "node/13369968556"}}, {"type": "Feature", "geometry": {"type": "Point", "coordinates": [-3.6068886, 37.1643075]}, "properties": {"name": "Centro laparoscopico", "kind": "doctors", "categoria": "sanidad", "osm_id": "node/13388079347"}}, {"type": "Feature", "geometry": {"type": "Point", "coordinates": [-3.6050714, 37.1653411]}, "properties": {"name": "Clínica aguamarina", "kind": "doctors", "categoria": "sanidad", "osm_id": "node/13388109056"}}, {"type": "Feature", "geometry": {"type": "Point", "coordinates": [-3.60497, 37.1658879]}, "properties": {"name": "Depilación", "kind": "doctors", "categoria": "sanidad", "osm_id": "node/13388330523"}}, {"type": "Feature", "geometry": {"type": "Point", "coordinates": [-3.6060589, 37.1647789]}, "properties": {"name": "Fydian (Neurología)", "kind": "doctors", "categoria": "sanidad", "osm_id": "node/13388330803"}}, {"type": "Feature", "geometry": {"type": "Point", "coordinates": [-3.6095327, 37.1738826]}, "properties": {"name": "Dra. Huertas", "kind": "doctors", "categoria": "sanidad", "osm_id": "node/13388350636"}}, {"type": "Feature", "geometry": {"type": "Point", "coordinates": [-3.6148865, 37.1903953]}, "properties": {"name": "Clínica Urológica Arrabal & Gutiérrez", "kind": "doctors", "categoria": "sanidad", "osm_id": "node/13388431211"}}, {"type": "Feature", "geometry": {"type": "Point", "coordinates": [-3.6088445, 37.1892416]}, "properties": {"name": "Centro Regional de Tranfusión Sanguínea", "kind": "hospital", "categoria": "sanidad", "osm_id": "node/13457419111"}}, {"type": "Feature", "geometry": {"type": "Point", "coordinates": [-3.6287372, 37.1971746]}, "properties": {"name": "Centro de Diagnóstico", "kind": "doctors", "categoria": "sanidad", "osm_id": "node/13569530722"}}, {"type": "Feature", "geometry": {"type": "Point", "coordinates": [-3.6069454, 37.1873026]}, "properties": {"name": "Doctor A. Zuluaga Gómez", "kind": "doctors", "categoria": "sanidad", "osm_id": "node/13588528805"}}, {"type": "Feature", "geometry": {"type": "Point", "coordinates": [-3.6073598, 37.1875692]}, "properties": {"name": "Clínica Hidalgo", "kind": "clinic", "categoria": "sanidad", "osm_id": "node/13588528808"}}, {"type": "Feature", "geometry": {"type": "Point", "coordinates": [-3.6019421, 37.1633972]}, "properties": {"name": "Clinique Vie", "kind": "clinic", "categoria": "sanidad", "osm_id": "node/13595201953"}}, {"type": "Feature", "geometry": {"type": "Point", "coordinates": [-3.6011094, 37.1728658]}, "properties": {"name": "Hiancia Neuropsicología", "kind": "clinic", "categoria": "sanidad", "osm_id": "node/13623547542"}}, {"type": "Feature", "geometry": {"type": "Point", "coordinates": [-3.6281787, 37.1968804]}, "properties": {"name": "Parafarmacia Diputación", "kind": "pharmacy", "categoria": "sanidad", "osm_id": "node/13637707037"}}]}